[
    {
        "Altitude(m)": 558927.9772235558,
        "Argument of Periapsis(deg)": 0.013245982221427002,
        "Eccentricity": 0.0,
        "Inclination(deg)": 53.0,
        "Latitude(deg)": -20.10398585559101,
        "Longitude(deg)": -107.49759899611672,
        "Mean Anomaly(deg)": 334.7286857351552,
        "RAAN(deg)": 9.980286737056034,
        "Satellite Name": "Starlink Shell 1 63",
        "Satellite Number": 63,
        "Semi-Major Axis(m)": 6931778.249405717,
        "Time(s)": 380
    },
    {
        "Altitude(m)": 558770.944613511,
        "Argument of Periapsis(deg)": 0.013594560700938237,
        "Eccentricity": 0.0,
        "Inclination(deg)": 53.0,
        "Latitude(deg)": -19.61993503601694,
        "Longitude(deg)": -107.11387967255605,
        "Mean Anomaly(deg)": 335.35551693871196,
        "RAAN(deg)": 9.97976796697856,
        "Satellite Name": "Starlink Shell 1 63",
        "Satellite Number": 63,
        "Semi-Major Axis(m)": 6931778.249405717,
        "Time(s)": 390
    },
    {
        "Altitude(m)": 558615.4197398967,
        "Argument of Periapsis(deg)": 0.013943139180449475,
        "Eccentricity": 0.0,
        "Inclination(deg)": 53.0,
        "Latitude(deg)": -19.134846828388934,
        "Longitude(deg)": -106.73268546897806,
        "Mean Anomaly(deg)": 335.9823481422687,
        "RAAN(deg)": 9.979249196901089,
        "Satellite Name": "Starlink Shell 1 63",
        "Satellite Number": 63,
        "Semi-Major Axis(m)": 6931778.249405717,
        "Time(s)": 400
    },
    {
        "Altitude(m)": 558461.4560740615,
        "Argument of Periapsis(deg)": 0.014291717659960712,
        "Eccentricity": 0.0,
        "Inclination(deg)": 53.0,
        "Latitude(deg)": -18.64875390018565,
        "Longitude(deg)": -106.35393904369144,
        "Mean Anomaly(deg)": 336.6091793458254,
        "RAAN(deg)": 9.978730426823613,
        "Satellite Name": "Starlink Shell 1 63",
        "Satellite Number": 63,
        "Semi-Major Axis(m)": 6931778.249405717,
        "Time(s)": 410
    },
    {
        "Altitude(m)": 558309.1062425165,
        "Argument of Periapsis(deg)": 0.014640296139471948,
        "Eccentricity": 0.0,
        "Inclination(deg)": 53.0,
        "Latitude(deg)": -18.161688366452655,
        "Longitude(deg)": -105.97756455200089,
        "Mean Anomaly(deg)": 337.23601054938206,
        "RAAN(deg)": 9.978211656746142,
        "Satellite Name": "Starlink Shell 1 63",
        "Satellite Number": 63,
        "Semi-Major Axis(m)": 6931778.249405717,
        "Time(s)": 420
    },
    {
        "Altitude(m)": 558158.4220035933,
        "Argument of Periapsis(deg)": 0.014988874618983185,
        "Eccentricity": 0.0,
        "Inclination(deg)": 53.0,
        "Latitude(deg)": -17.673681809782874,
        "Longitude(deg)": -105.60348711663578,
        "Mean Anomaly(deg)": 337.86284175293883,
        "RAAN(deg)": 9.97769288666867,
        "Satellite Name": "Starlink Shell 1 63",
        "Satellite Number": 63,
        "Semi-Major Axis(m)": 6931778.249405717,
        "Time(s)": 430
    },
    {
        "Altitude(m)": 558009.4542245092,
        "Argument of Periapsis(deg)": 0.015337453098494424,
        "Eccentricity": 0.0,
        "Inclination(deg)": 53.0,
        "Latitude(deg)": -17.18476529985889,
        "Longitude(deg)": -105.23163229786255,
        "Mean Anomaly(deg)": 338.48967295649555,
        "RAAN(deg)": 9.977174116591197,
        "Satellite Name": "Starlink Shell 1 63",
        "Satellite Number": 63,
        "Semi-Major Axis(m)": 6931778.249405717,
        "Time(s)": 440
    },
    {
        "Altitude(m)": 557862.2528588388,
        "Argument of Periapsis(deg)": 0.01568603157800566,
        "Eccentricity": 0.0,
        "Inclination(deg)": 53.0,
        "Latitude(deg)": -16.694969412565133,
        "Longitude(deg)": -104.86192707620154,
        "Mean Anomaly(deg)": 339.1165041600522,
        "RAAN(deg)": 9.976655346513724,
        "Satellite Name": "Starlink Shell 1 63",
        "Satellite Number": 63,
        "Semi-Major Axis(m)": 6931778.249405717,
        "Time(s)": 450
    },
    {
        "Altitude(m)": 557716.8669244985,
        "Argument of Periapsis(deg)": 0.0160346100575169,
        "Eccentricity": 0.0,
        "Inclination(deg)": 53.0,
        "Latitude(deg)": -16.20432424868553,
        "Longitude(deg)": -104.4942993220484,
        "Mean Anomaly(deg)": 339.743335363609,
        "RAAN(deg)": 9.97613657643625,
        "Satellite Name": "Starlink Shell 1 63",
        "Satellite Number": 63,
        "Semi-Major Axis(m)": 6931778.249405717,
        "Time(s)": 460
    },
    {
        "Altitude(m)": 557573.3444820801,
        "Argument of Periapsis(deg)": 0.016383188537028134,
        "Eccentricity": 0.0,
        "Inclination(deg)": 53.0,
        "Latitude(deg)": -15.712859452194829,
        "Longitude(deg)": -104.1286772651126,
        "Mean Anomaly(deg)": 340.37016656716565,
        "RAAN(deg)": 9.975617806358779,
        "Satellite Name": "Starlink Shell 1 63",
        "Satellite Number": 63,
        "Semi-Major Axis(m)": 6931778.249405717,
        "Time(s)": 470
    },
    {
        "Altitude(m)": 557431.7326137526,
        "Argument of Periapsis(deg)": 0.01673176701653937,
        "Eccentricity": 0.0,
        "Inclination(deg)": 53.0,
        "Latitude(deg)": -15.220604228156262,
        "Longitude(deg)": -103.76499047658584,
        "Mean Anomaly(deg)": 340.9969977707224,
        "RAAN(deg)": 9.975099036281307,
        "Satellite Name": "Starlink Shell 1 63",
        "Satellite Number": 63,
        "Semi-Major Axis(m)": 6931778.249405717,
        "Time(s)": 480
    },
    {
        "Altitude(m)": 557292.0774025858,
        "Argument of Periapsis(deg)": 0.017080345496050607,
        "Eccentricity": 0.0,
        "Inclination(deg)": 53.0,
        "Latitude(deg)": -14.727587360238118,
        "Longitude(deg)": -103.40316933832408,
        "Mean Anomaly(deg)": 341.6238289742791,
        "RAAN(deg)": 9.974580266203832,
        "Satellite Name": "Starlink Shell 1 63",
        "Satellite Number": 63,
        "Semi-Major Axis(m)": 6931778.249405717,
        "Time(s)": 490
    },
    {
        "Altitude(m)": 557154.423912369,
        "Argument of Periapsis(deg)": 0.017428923975561842,
        "Eccentricity": 0.0,
        "Inclination(deg)": 53.0,
        "Latitude(deg)": -14.233837227861304,
        "Longitude(deg)": -103.04314451194858,
        "Mean Anomaly(deg)": 342.2506601778358,
        "RAAN(deg)": 9.97406149612636,
        "Satellite Name": "Starlink Shell 1 63",
        "Satellite Number": 63,
        "Semi-Major Axis(m)": 6931778.249405717,
        "Time(s)": 500
    },
    {
        "Altitude(m)": 557018.8161679351,
        "Argument of Periapsis(deg)": 0.01777750245507308,
        "Eccentricity": 0.0,
        "Inclination(deg)": 53.0,
        "Latitude(deg)": -13.739381822988337,
        "Longitude(deg)": -102.68484792076487,
        "Mean Anomaly(deg)": 342.87749138139253,
        "RAAN(deg)": 9.973542726048885,
        "Satellite Name": "Starlink Shell 1 63",
        "Satellite Number": 63,
        "Semi-Major Axis(m)": 6931778.249405717,
        "Time(s)": 510
    },
    {
        "Altitude(m)": 556885.2971359951,
        "Argument of Periapsis(deg)": 0.018126080934584315,
        "Eccentricity": 0.0,
        "Inclination(deg)": 53.0,
        "Latitude(deg)": -13.24424876656842,
        "Longitude(deg)": -102.32821221877663,
        "Mean Anomaly(deg)": 343.50432258494925,
        "RAAN(deg)": 9.973023955971414,
        "Satellite Name": "Starlink Shell 1 63",
        "Satellite Number": 63,
        "Semi-Major Axis(m)": 6931778.249405717,
        "Time(s)": 520
    },
    {
        "Altitude(m)": 556753.9087064938,
        "Argument of Periapsis(deg)": 0.018474659414095554,
        "Eccentricity": 0.0,
        "Inclination(deg)": 53.0,
        "Latitude(deg)": -12.748465324649946,
        "Longitude(deg)": -101.97317025968867,
        "Mean Anomaly(deg)": 344.1311537885059,
        "RAAN(deg)": 9.972505185893942,
        "Satellite Name": "Starlink Shell 1 63",
        "Satellite Number": 63,
        "Semi-Major Axis(m)": 6931778.249405717,
        "Time(s)": 530
    },
    {
        "Altitude(m)": 556624.6916744792,
        "Argument of Periapsis(deg)": 0.018823237893606792,
        "Eccentricity": 0.0,
        "Inclination(deg)": 53.0,
        "Latitude(deg)": -12.252058424171585,
        "Longitude(deg)": -101.61965607879107,
        "Mean Anomaly(deg)": 344.7579849920627,
        "RAAN(deg)": 9.971986415816469,
        "Satellite Name": "Starlink Shell 1 63",
        "Satellite Number": 63,
        "Semi-Major Axis(m)": 6931778.249405717,
        "Time(s)": 540
    },
    {
        "Altitude(m)": 556497.6857225315,
        "Argument of Periapsis(deg)": 0.019171816373118027,
        "Eccentricity": 0.0,
        "Inclination(deg)": 53.0,
        "Latitude(deg)": -11.755054668446554,
        "Longitude(deg)": -101.26760436199311,
        "Mean Anomaly(deg)": 345.3848161956194,
        "RAAN(deg)": 9.971467645738995,
        "Satellite Name": "Starlink Shell 1 63",
        "Satellite Number": 63,
        "Semi-Major Axis(m)": 6931778.249405717,
        "Time(s)": 550
    },
    {
        "Altitude(m)": 556372.9294037377,
        "Argument of Periapsis(deg)": 0.019520394852629266,
        "Eccentricity": 0.0,
        "Inclination(deg)": 53.0,
        "Latitude(deg)": -11.257480352350822,
        "Longitude(deg)": -100.91694991489362,
        "Mean Anomaly(deg)": 346.0116473991761,
        "RAAN(deg)": 9.970948875661524,
        "Satellite Name": "Starlink Shell 1 63",
        "Satellite Number": 63,
        "Semi-Major Axis(m)": 6931778.249405717,
        "Time(s)": 560
    }
]